CCSDS_OMM_VERS = 2.0
CREATION_DATE  = 
ORIGINATOR     = 

OBJECT_NAME    = SOYUZ-MS 28
OBJECT_ID      = 2025-275A
CENTER_NAME    = EARTH
REF_FRAME      = TEME
TIME_SYSTEM    = UTC
MEAN_ELEMENT_THEORY = SGP/SGP4

EPOCH          = 2025-12-12T03:41:57.165504
MEAN_MOTION    = 15.49529746
ECCENTRICITY   = .00032837
INCLINATION    = 51.6307
RA_OF_ASC_NODE = 145.3792
ARG_OF_PERICENTER = 237.6977
MEAN_ANOMALY   = 122.3694

EPHEMERIS_TYPE = 0
CLASSIFICATION_TYPE = U
NORAD_CAT_ID   = 66664
ELEMENT_SET_NO = 999
REV_AT_EPOCH   = 128
BSTAR          = .26408062E-3
MEAN_MOTION_DOT = .14398E-3
MEAN_MOTION_DDOT = 0

CCSDS_OMM_VERS = 2.0
CREATION_DATE  = 
ORIGINATOR     = 

OBJECT_NAME    = 1998-067XS
OBJECT_ID      = 1998-067XS
CENTER_NAME    = EARTH
REF_FRAME      = TEME
TIME_SYSTEM    = UTC
MEAN_ELEMENT_THEORY = SGP/SGP4

EPOCH          = 2025-12-11T19:50:50.396352
MEAN_MOTION    = 15.50491702
ECCENTRICITY   = .00036759
INCLINATION    = 51.6297
RA_OF_ASC_NODE = 146.9447
ARG_OF_PERICENTER = 198.3211
MEAN_ANOMALY   = 161.7647

EPHEMERIS_TYPE = 0
CLASSIFICATION_TYPE = U
NORAD_CAT_ID   = 66906
ELEMENT_SET_NO = 999
REV_AT_EPOCH   = 147
BSTAR          = .60264305E-3
MEAN_MOTION_DOT = .34698E-3
MEAN_MOTION_DDOT = 0

CCSDS_OMM_VERS = 2.0
CREATION_DATE  = 
ORIGINATOR     = 

OBJECT_NAME    = 1998-067XT
OBJECT_ID      = 1998-067XT
CENTER_NAME    = EARTH
REF_FRAME      = TEME
TIME_SYSTEM    = UTC
MEAN_ELEMENT_THEORY = SGP/SGP4

EPOCH          = 2025-12-09T12:07:37.114752
MEAN_MOTION    = 15.50864429
ECCENTRICITY   = .00048036
INCLINATION    = 51.6307
RA_OF_ASC_NODE = 158.4423
ARG_OF_PERICENTER = 208.5081
MEAN_ANOMALY   = 151.5646

EPHEMERIS_TYPE = 0
CLASSIFICATION_TYPE = U
NORAD_CAT_ID   = 66907
ELEMENT_SET_NO = 999
REV_AT_EPOCH   = 111
BSTAR          = .12921241E-2
MEAN_MOTION_DOT = .76342E-3
MEAN_MOTION_DDOT = 0

CCSDS_OMM_VERS = 2.0
CREATION_DATE  = 
ORIGINATOR     = 

OBJECT_NAME    = 1998-067XU
OBJECT_ID      = 1998-067XU
CENTER_NAME    = EARTH
REF_FRAME      = TEME
TIME_SYSTEM    = UTC
MEAN_ELEMENT_THEORY = SGP/SGP4

EPOCH          = 2025-12-11T19:47:12.664032
MEAN_MOTION    = 15.51346926
ECCENTRICITY   = .00046963
INCLINATION    = 51.6299
RA_OF_ASC_NODE = 146.9280
ARG_OF_PERICENTER = 220.0254
MEAN_ANOMALY   = 140.0390

EPHEMERIS_TYPE = 0
CLASSIFICATION_TYPE = U
NORAD_CAT_ID   = 66908
ELEMENT_SET_NO = 999
REV_AT_EPOCH   = 147
BSTAR          = .13269788E-2
MEAN_MOTION_DOT = .79814E-3
MEAN_MOTION_DDOT = 0

CCSDS_OMM_VERS = 2.0
CREATION_DATE  = 
ORIGINATOR     = 

OBJECT_NAME    = SILVERSAT
OBJECT_ID      = 1998-067XV
CENTER_NAME    = EARTH
REF_FRAME      = TEME
TIME_SYSTEM    = UTC
MEAN_ELEMENT_THEORY = SGP/SGP4

EPOCH          = 2025-12-11T19:46:46.158240
MEAN_MOTION    = 15.51450033
ECCENTRICITY   = .00045562
INCLINATION    = 51.6300
RA_OF_ASC_NODE = 146.9260
ARG_OF_PERICENTER = 222.0234
MEAN_ANOMALY   = 138.0406

EPHEMERIS_TYPE = 0
CLASSIFICATION_TYPE = U
NORAD_CAT_ID   = 66909
ELEMENT_SET_NO = 999
REV_AT_EPOCH   = 147
BSTAR          = .13718352E-2
MEAN_MOTION_DOT = .82864E-3
MEAN_MOTION_DDOT = 0

CCSDS_OMM_VERS = 2.0
CREATION_DATE  = 
ORIGINATOR     = 

OBJECT_NAME    = 1998-067XW
OBJECT_ID      = 1998-067XW
CENTER_NAME    = EARTH
REF_FRAME      = TEME
TIME_SYSTEM    = UTC
MEAN_ELEMENT_THEORY = SGP/SGP4

EPOCH          = 2025-12-12T00:22:58.433376
MEAN_MOTION    = 15.51622834
ECCENTRICITY   = .00053767
INCLINATION    = 51.6296
RA_OF_ASC_NODE = 145.9572
ARG_OF_PERICENTER = 204.7962
MEAN_ANOMALY   = 155.2770

EPHEMERIS_TYPE = 0
CLASSIFICATION_TYPE = U
NORAD_CAT_ID   = 66910
ELEMENT_SET_NO = 999
REV_AT_EPOCH   = 150
BSTAR          = .12086186E-2
MEAN_MOTION_DOT = .73325E-3
MEAN_MOTION_DDOT = 0

CCSDS_OMM_VERS = 2.0
CREATION_DATE  = 
ORIGINATOR     = 

OBJECT_NAME    = 1998-067XX
OBJECT_ID      = 1998-067XX
CENTER_NAME    = EARTH
REF_FRAME      = TEME
TIME_SYSTEM    = UTC
MEAN_ELEMENT_THEORY = SGP/SGP4

EPOCH          = 2025-12-12T03:27:33.883488
MEAN_MOTION    = 15.51877198
ECCENTRICITY   = .00050437
INCLINATION    = 51.6295
RA_OF_ASC_NODE = 145.3134
ARG_OF_PERICENTER = 206.7982
MEAN_ANOMALY   = 153.2747

EPHEMERIS_TYPE = 0
CLASSIFICATION_TYPE = U
NORAD_CAT_ID   = 66911
ELEMENT_SET_NO = 999
REV_AT_EPOCH   = 151
BSTAR          = .15037661E-2
MEAN_MOTION_DOT = .92403E-3
MEAN_MOTION_DDOT = 0

CCSDS_OMM_VERS = 2.0
CREATION_DATE  = 
ORIGINATOR     = 

OBJECT_NAME    = 1998-067XY
OBJECT_ID      = 1998-067XY
CENTER_NAME    = EARTH
REF_FRAME      = TEME
TIME_SYSTEM    = UTC
MEAN_ELEMENT_THEORY = SGP/SGP4

EPOCH          = 2025-12-11T19:48:45.131904
MEAN_MOTION    = 15.51001955
ECCENTRICITY   = .00047052
INCLINATION    = 51.6304
RA_OF_ASC_NODE = 146.9360
ARG_OF_PERICENTER = 217.5082
MEAN_ANOMALY   = 142.5579

EPHEMERIS_TYPE = 0
CLASSIFICATION_TYPE = U
NORAD_CAT_ID   = 66912
ELEMENT_SET_NO = 999
REV_AT_EPOCH   = 146
BSTAR          = .99420433E-3
MEAN_MOTION_DOT = .5879E-3
MEAN_MOTION_DDOT = 0

